[
  {
    "OBJECT_NAME": "STARLINK-35295",
    "OBJECT_ID": "25235N",
    "EPOCH": "2025-11-11T08:00:03.000384",
    "MEAN_MOTION": 15.49287493,
    "ECCENTRICITY": 0.0001281,
    "INCLINATION": 53.1601,
    "RA_OF_ASC_NODE": 77.2387,
    "ARG_OF_PERICENTER": 98.5297,
    "MEAN_ANOMALY": 104.8983,
    "EPHEMERIS_TYPE": 0,
    "CLASSIFICATION_TYPE": "U",
    "NORAD_CAT_ID": 66070,
    "ELEMENT_SET_NO": 999,
    "REV_AT_EPOCH": 482,
    "BSTAR": 7.1378e-05,
    "MEAN_MOTION_DOT": 3.52e-05,
    "MEAN_MOTION_DDOT": 0.0,
    "TLE_LINE1": "1 66070U 25235N   25315.33336806  .00003520  00000+0  71378-4 0  9993",
    "TLE_LINE2": "2 66070  53.1601  77.2387 0001281  98.5297 104.8983 15.49287493  4822",
    "COMMENT": "Grouped by shell and plane from TLE"
  },
  {
    "OBJECT_NAME": "STARLINK-35323",
    "OBJECT_ID": "25235P",
    "EPOCH": "2025-11-11T08:00:03.000384",
    "MEAN_MOTION": 15.49293155,
    "ECCENTRICITY": 0.0001219,
    "INCLINATION": 53.16,
    "RA_OF_ASC_NODE": 77.242,
    "ARG_OF_PERICENTER": 74.2474,
    "MEAN_ANOMALY": 127.2615,
    "EPHEMERIS_TYPE": 0,
    "CLASSIFICATION_TYPE": "U",
    "NORAD_CAT_ID": 66071,
    "ELEMENT_SET_NO": 999,
    "REV_AT_EPOCH": 482,
    "BSTAR": 0.0,
    "MEAN_MOTION_DOT": -0.00011597,
    "MEAN_MOTION_DDOT": 0.0,
    "TLE_LINE1": "1 66071U 25235P   25315.33336806 -.00011597  00000+0 -20088-3 0  9990",
    "TLE_LINE2": "2 66071  53.1600  77.2420 0001219  74.2474 127.2615 15.49293155  4822",
    "COMMENT": "Grouped by shell and plane from TLE"
  },
  {
    "OBJECT_NAME": "STARLINK-35299",
    "OBJECT_ID": "25235Q",
    "EPOCH": "2025-11-11T08:00:03.000384",
    "MEAN_MOTION": 15.43605414,
    "ECCENTRICITY": 0.0001358,
    "INCLINATION": 53.1597,
    "RA_OF_ASC_NODE": 77.2601,
    "ARG_OF_PERICENTER": 83.6423,
    "MEAN_ANOMALY": 108.7183,
    "EPHEMERIS_TYPE": 0,
    "CLASSIFICATION_TYPE": "U",
    "NORAD_CAT_ID": 66072,
    "ELEMENT_SET_NO": 999,
    "REV_AT_EPOCH": 482,
    "BSTAR": 0.0,
    "MEAN_MOTION_DOT": -0.02030348,
    "MEAN_MOTION_DDOT": 0.0,
    "TLE_LINE1": "1 66072U 25235Q   25315.33336806 -.02030348  00000+0 -49933-1 0  9996",
    "TLE_LINE2": "2 66072  53.1597  77.2601 0001358  83.6423 108.7183 15.43605414  4824",
    "COMMENT": "Grouped by shell and plane from TLE"
  },
  {
    "OBJECT_NAME": "STARLINK-35274",
    "OBJECT_ID": "25235R",
    "EPOCH": "2025-11-11T08:00:03.000384",
    "MEAN_MOTION": 15.46690534,
    "ECCENTRICITY": 0.0001586,
    "INCLINATION": 53.1601,
    "RA_OF_ASC_NODE": 77.2351,
    "ARG_OF_PERICENTER": 86.3901,
    "MEAN_ANOMALY": 118.1168,
    "EPHEMERIS_TYPE": 0,
    "CLASSIFICATION_TYPE": "U",
    "NORAD_CAT_ID": 66073,
    "ELEMENT_SET_NO": 999,
    "REV_AT_EPOCH": 482,
    "BSTAR": 0.0,
    "MEAN_MOTION_DOT": -0.020371,
    "MEAN_MOTION_DDOT": 0.0,
    "TLE_LINE1": "1 66073U 25235R   25315.33336806 -.02037100  00000+0 -45056-1 0  9992",
    "TLE_LINE2": "2 66073  53.1601  77.2351 0001586  86.3901 118.1168 15.46690534  4825",
    "COMMENT": "Grouped by shell and plane from TLE"
  },
  {
    "OBJECT_NAME": "STARLINK-35321",
    "OBJECT_ID": "25235S",
    "EPOCH": "2025-11-11T08:00:03.000384",
    "MEAN_MOTION": 15.4967736,
    "ECCENTRICITY": 0.0001542,
    "INCLINATION": 53.1601,
    "RA_OF_ASC_NODE": 77.2253,
    "ARG_OF_PERICENTER": 96.2652,
    "MEAN_ANOMALY": 112.8587,
    "EPHEMERIS_TYPE": 0,
    "CLASSIFICATION_TYPE": "U",
    "NORAD_CAT_ID": 66074,
    "ELEMENT_SET_NO": 999,
    "REV_AT_EPOCH": 482,
    "BSTAR": 0.0,
    "MEAN_MOTION_DOT": -0.01926267,
    "MEAN_MOTION_DDOT": 0.0,
    "TLE_LINE1": "1 66074U 25235S   25315.33336806 -.01926267  00000+0 -38097-1 0  9990",
    "TLE_LINE2": "2 66074  53.1601  77.2253 0001542  96.2652 112.8587 15.49677360  4823",
    "COMMENT": "Grouped by shell and plane from TLE"
  },
  {
    "OBJECT_NAME": "STARLINK-35131",
    "OBJECT_ID": "25235T",
    "EPOCH": "2025-11-11T08:00:03.000384",
    "MEAN_MOTION": 15.49294191,
    "ECCENTRICITY": 0.0001361,
    "INCLINATION": 53.16,
    "RA_OF_ASC_NODE": 77.2127,
    "ARG_OF_PERICENTER": 70.485,
    "MEAN_ANOMALY": 144.4471,
    "EPHEMERIS_TYPE": 0,
    "CLASSIFICATION_TYPE": "U",
    "NORAD_CAT_ID": 66075,
    "ELEMENT_SET_NO": 999,
    "REV_AT_EPOCH": 482,
    "BSTAR": 0.0,
    "MEAN_MOTION_DOT": -0.0001593,
    "MEAN_MOTION_DDOT": 0.0,
    "TLE_LINE1": "1 66075U 25235T   25315.33336806 -.00015930  00000+0 -27909-3 0  9998",
    "TLE_LINE2": "2 66075  53.1600  77.2127 0001361  70.4850 144.4471 15.49294191  4826",
    "COMMENT": "Grouped by shell and plane from TLE"
  },
  {
    "OBJECT_NAME": "STARLINK-34801",
    "OBJECT_ID": "25235U",
    "EPOCH": "2025-11-11T08:00:03.000384",
    "MEAN_MOTION": 15.49280236,
    "ECCENTRICITY": 0.0001281,
    "INCLINATION": 53.1599,
    "RA_OF_ASC_NODE": 77.2214,
    "ARG_OF_PERICENTER": 68.7323,
    "MEAN_ANOMALY": 142.3546,
    "EPHEMERIS_TYPE": 0,
    "CLASSIFICATION_TYPE": "U",
    "NORAD_CAT_ID": 66076,
    "ELEMENT_SET_NO": 999,
    "REV_AT_EPOCH": 482,
    "BSTAR": 0.0005869600000000001,
    "MEAN_MOTION_DOT": 0.00032298,
    "MEAN_MOTION_DDOT": 0.0,
    "TLE_LINE1": "1 66076U 25235U   25315.33336806  .00032298  00000+0  58696-3 0  9990",
    "TLE_LINE2": "2 66076  53.1599  77.2214 0001281  68.7323 142.3546 15.49280236  4822",
    "COMMENT": "Grouped by shell and plane from TLE"
  },
  {
    "OBJECT_NAME": "STARLINK-35129",
    "OBJECT_ID": "25235V",
    "EPOCH": "2025-11-11T08:00:03.000384",
    "MEAN_MOTION": 15.4928482,
    "ECCENTRICITY": 0.0001339,
    "INCLINATION": 53.16,
    "RA_OF_ASC_NODE": 77.218,
    "ARG_OF_PERICENTER": 69.4651,
    "MEAN_ANOMALY": 143.547,
    "EPHEMERIS_TYPE": 0,
    "CLASSIFICATION_TYPE": "U",
    "NORAD_CAT_ID": 66077,
    "ELEMENT_SET_NO": 999,
    "REV_AT_EPOCH": 482,
    "BSTAR": 9.9561e-05,
    "MEAN_MOTION_DOT": 5.088e-05,
    "MEAN_MOTION_DDOT": 0.0,
    "TLE_LINE1": "1 66077U 25235V   25315.33336806  .00005088  00000+0  99561-4 0  9995",
    "TLE_LINE2": "2 66077  53.1600  77.2180 0001339  69.4651 143.5470 15.49284820  4826",
    "COMMENT": "Grouped by shell and plane from TLE"
  },
  {
    "OBJECT_NAME": "STARLINK-35116",
    "OBJECT_ID": "25235W",
    "EPOCH": "2025-11-11T08:00:03.000384",
    "MEAN_MOTION": 15.49293689,
    "ECCENTRICITY": 0.0001348,
    "INCLINATION": 53.16,
    "RA_OF_ASC_NODE": 77.2044,
    "ARG_OF_PERICENTER": 67.2386,
    "MEAN_ANOMALY": 151.5246,
    "EPHEMERIS_TYPE": 0,
    "CLASSIFICATION_TYPE": "U",
    "NORAD_CAT_ID": 66078,
    "ELEMENT_SET_NO": 999,
    "REV_AT_EPOCH": 482,
    "BSTAR": 0.0,
    "MEAN_MOTION_DOT": -0.00014203,
    "MEAN_MOTION_DDOT": 0.0,
    "TLE_LINE1": "1 66078U 25235W   25315.33336806 -.00014203  00000+0 -24791-3 0  9999",
    "TLE_LINE2": "2 66078  53.1600  77.2044 0001348  67.2386 151.5246 15.49293689  4820",
    "COMMENT": "Grouped by shell and plane from TLE"
  },
  {
    "OBJECT_NAME": "STARLINK-35402",
    "OBJECT_ID": "25235X",
    "EPOCH": "2025-11-11T08:00:03.000384",
    "MEAN_MOTION": 15.49291228,
    "ECCENTRICITY": 0.0001405,
    "INCLINATION": 53.1601,
    "RA_OF_ASC_NODE": 77.2005,
    "ARG_OF_PERICENTER": 69.6887,
    "MEAN_ANOMALY": 150.9913,
    "EPHEMERIS_TYPE": 0,
    "CLASSIFICATION_TYPE": "U",
    "NORAD_CAT_ID": 66079,
    "ELEMENT_SET_NO": 999,
    "REV_AT_EPOCH": 482,
    "BSTAR": 0.0,
    "MEAN_MOTION_DOT": -7.749e-05,
    "MEAN_MOTION_DDOT": 0.0,
    "TLE_LINE1": "1 66079U 25235X   25315.33336806 -.00007749  00000+0 -13149-3 0  9992",
    "TLE_LINE2": "2 66079  53.1601  77.2005 0001405  69.6887 150.9913 15.49291228  4826",
    "COMMENT": "Grouped by shell and plane from TLE"
  },
  {
    "OBJECT_NAME": "STARLINK-35325",
    "OBJECT_ID": "25235Y",
    "EPOCH": "2025-11-11T08:00:03.000384",
    "MEAN_MOTION": 15.49288389,
    "ECCENTRICITY": 0.000135,
    "INCLINATION": 53.16,
    "RA_OF_ASC_NODE": 77.208,
    "ARG_OF_PERICENTER": 67.6584,
    "MEAN_ANOMALY": 149.1889,
    "EPHEMERIS_TYPE": 0,
    "CLASSIFICATION_TYPE": "U",
    "NORAD_CAT_ID": 66080,
    "ELEMENT_SET_NO": 999,
    "REV_AT_EPOCH": 482,
    "BSTAR": 0.0,
    "MEAN_MOTION_DOT": -2.616e-05,
    "MEAN_MOTION_DDOT": 0.0,
    "TLE_LINE1": "1 66080U 25235Y   25315.33336806 -.00002616  00000+0 -39026-4 0  9995",
    "TLE_LINE2": "2 66080  53.1600  77.2080 0001350  67.6584 149.1889 15.49288389  4827",
    "COMMENT": "Grouped by shell and plane from TLE"
  },
  {
    "OBJECT_NAME": "STARLINK-35403",
    "OBJECT_ID": "25235Z",
    "EPOCH": "2025-11-11T08:00:03.000384",
    "MEAN_MOTION": 15.49290544,
    "ECCENTRICITY": 0.0001422,
    "INCLINATION": 53.16,
    "RA_OF_ASC_NODE": 77.1942,
    "ARG_OF_PERICENTER": 66.4614,
    "MEAN_ANOMALY": 158.0536,
    "EPHEMERIS_TYPE": 0,
    "CLASSIFICATION_TYPE": "U",
    "NORAD_CAT_ID": 66081,
    "ELEMENT_SET_NO": 999,
    "REV_AT_EPOCH": 482,
    "BSTAR": 0.0,
    "MEAN_MOTION_DOT": -8.969e-05,
    "MEAN_MOTION_DDOT": 0.0,
    "TLE_LINE1": "1 66081U 25235Z   25315.33336806 -.00008969  00000+0 -15348-3 0  9993",
    "TLE_LINE2": "2 66081  53.1600  77.1942 0001422  66.4614 158.0536 15.49290544  4829",
    "COMMENT": "Grouped by shell and plane from TLE"
  },
  {
    "OBJECT_NAME": "STARLINK-35011",
    "OBJECT_ID": "25235AA",
    "EPOCH": "2025-11-11T08:00:03.000384",
    "MEAN_MOTION": 15.49283845,
    "ECCENTRICITY": 0.0001381,
    "INCLINATION": 53.1601,
    "RA_OF_ASC_NODE": 77.1962,
    "ARG_OF_PERICENTER": 69.8586,
    "MEAN_ANOMALY": 152.7424,
    "EPHEMERIS_TYPE": 0,
    "CLASSIFICATION_TYPE": "U",
    "NORAD_CAT_ID": 66082,
    "ELEMENT_SET_NO": 999,
    "REV_AT_EPOCH": 482,
    "BSTAR": 6.552700000000001e-05,
    "MEAN_MOTION_DOT": 3.194e-05,
    "MEAN_MOTION_DDOT": 0.0,
    "TLE_LINE1": "1 66082U 25235AA  25315.33336806  .00003194  00000+0  65527-4 0  9992",
    "TLE_LINE2": "2 66082  53.1601  77.1962 0001381  69.8586 152.7424 15.49283845  4825",
    "COMMENT": "Grouped by shell and plane from TLE"
  }
]